IRIDIUM 159             
1 43578U 18061K   25081.87368616  .00000508  00000+0  17434-3 0  9998
2 43578  86.3937 245.2506 0002253  97.4745 262.6706 14.34217169348694
IRIDIUM 180             
1 43922U 19002A   25081.80341233  .00001336  00000+0  46975-3 0  9998
2 43922  86.4048 182.2353 0002208  94.3928 265.7520 14.34217404324290
IRIDIUM 176             
1 43923U 19002B   25081.85342919  .00004356  00000+0  68686-3 0  9994
2 43923  86.6167 182.2150 0002928  89.8572 270.2980 14.72237977332843
IRIDIUM 168             
1 43924U 19002C   25081.79706814  .00001157  00000+0  40615-3 0  9994
2 43924  86.4052 182.3023 0002157  96.6512 263.4929 14.34216443324277
IRIDIUM 169             
1 43926U 19002E   25081.83543325  .00001360  00000+0  43768-3 0  9995
2 43926  86.4266 213.7614 0002831  60.6108 299.5373 14.38641457325334
IRIDIUM 172             
1 43927U 19002F   25081.84782819  .00001050  00000+0  36764-3 0  9994
2 43927  86.4048 182.1955 0002442  98.1041 262.0432 14.34220571324279
IRIDIUM 175             
1 43928U 19002G   25081.91618645  .00003552  00000+0  55921-3 0  9993
2 43928  86.1515 139.6443 0001567  76.6577 283.4814 14.72254930332848
